ONEWEB-0184             
1 48211U 21031B   26009.29421916  .00000113  00000+0  27058-3 0  9993
2 48211  87.9030 321.3461 0001212  52.9588 307.1653 13.14502854227412
ONEWEB-0179             
1 48212U 21031C   26009.26486899 -.00000106  00000+0 -31920-3 0  9999
2 48212  87.9025 321.3582 0001726  87.6184 272.5144 13.14504665227454
ONEWEB-0180             
1 48213U 21031D   26009.22127685  .00000101  00000+0  23756-3 0  9992
2 48213  87.9030 321.3660 0001441  85.1712 274.9582 13.14502186227337
ONEWEB-0218             
1 48214U 21031E   26009.24345092  .00000215  00000+0  54540-3 0  9990
2 48214  87.9031 321.3621 0000902  57.9435 302.1782 13.14505222227493
ONEWEB-0209             
1 48215U 21031F   26009.30849600  .00000298  00000+0  76967-3 0  9990
2 48215  87.9015 321.3826 0001651  86.0618 274.0701 13.14502830227503
ONEWEB-0198             
1 48216U 21031G   26009.29277162  .00000108  00000+0  25710-3 0  9997
2 48216  87.9017 321.3827 0001302  84.4074 275.7204 13.14502729227613
ONEWEB-0189             
1 48217U 21031H   26009.22920250  .00000209  00000+0  52806-3 0  9992
2 48217  87.9022 321.3702 0001351  81.8023 278.3260 13.14501986227346
ONEWEB-0196             
1 48218U 21031J   26009.28309529 -.00000282  00000+0 -79478-3 0  9996
2 48218  87.9016 321.3723 0001624  82.6990 277.4324 13.14502204227354
ONEWEB-0183             
1 48219U 21031K   26009.25774568  .00000010  00000+0 -79370-5 0  9994
2 48219  87.9011 321.3799 0001883  83.7764 276.3580 13.14503164227449
ONEWEB-0185             
1 48220U 21031L   26009.28388911 -.00000060  00000+0 -19518-3 0  9994
2 48220  87.9024 321.3554 0001832  93.3327 266.8012 13.14501353227374
ONEWEB-0187             
1 48221U 21031M   26009.26395466 -.00000151  00000+0 -44043-3 0  9998
2 48221  87.9012 321.3971 0001607  87.4828 272.6485 13.14502063227384
ONEWEB-0192             
1 48222U 21031N   26009.31007982  .00000296  00000+0  76346-3 0  9997
2 48222  87.9011 321.3775 0001627  78.1071 282.0241 13.14503237227306
ONEWEB-0219             
1 48223U 21031P   26009.28946046  .00000054  00000+0  11009-3 0  9994
2 48223  87.9020 321.3617 0001708  88.1344 271.9981 13.14502649227502
ONEWEB-0202             
1 48224U 21031Q   26009.27042517 -.00000131  00000+0 -38656-3 0  9999
2 48224  87.9015 321.3760 0001030  74.8298 285.2946 13.14503001227483
ONEWEB-0204             
1 48225U 21031R   26009.30451742  .00000286  00000+0  73662-3 0  9993
2 48225  87.9020 321.3609 0001955  86.0153 274.1200 13.14505733227386
ONEWEB-0205             
1 48226U 21031S   26009.27994709 -.00000137  00000+0 -40483-3 0  9997
2 48226  87.9018 321.3586 0001703  86.0595 274.0730 13.14502776227391
