[{"OBJECT_NAME":"ONEWEB-0184","OBJECT_ID":"2021-031B","EPOCH":"2026-01-09T07:03:40.535424","MEAN_MOTION":13.14502854,"ECCENTRICITY":0.00012123,"INCLINATION":87.903,"RA_OF_ASC_NODE":321.3461,"ARG_OF_PERICENTER":52.9588,"MEAN_ANOMALY":307.1653,"EPHEMERIS_TYPE":0,"CLASSIFICATION_TYPE":"U","NORAD_CAT_ID":48211,"ELEMENT_SET_NO":999,"REV_AT_EPOCH":22741,"BSTAR":0.00027058473,"MEAN_MOTION_DOT":1.13e-6,"MEAN_MOTION_DDOT":0},{"OBJECT_NAME":"ONEWEB-0179","OBJECT_ID":"2021-031C","EPOCH":"2026-01-09T06:21:24.680736","MEAN_MOTION":13.14504665,"ECCENTRICITY":0.00017269,"INCLINATION":87.9025,"RA_OF_ASC_NODE":321.3582,"ARG_OF_PERICENTER":87.6184,"MEAN_ANOMALY":272.5144,"EPHEMERIS_TYPE":0,"CLASSIFICATION_TYPE":"U","NORAD_CAT_ID":48212,"ELEMENT_SET_NO":999,"REV_AT_EPOCH":22745,"BSTAR":-0.00031920329,"MEAN_MOTION_DOT":-1.06e-6,"MEAN_MOTION_DDOT":0},{"OBJECT_NAME":"ONEWEB-0180","OBJECT_ID":"2021-031D","EPOCH":"2026-01-09T05:18:38.319840","MEAN_MOTION":13.14502186,"ECCENTRICITY":0.00014412,"INCLINATION":87.903,"RA_OF_ASC_NODE":321.366,"ARG_OF_PERICENTER":85.1712,"MEAN_ANOMALY":274.9582,"EPHEMERIS_TYPE":0,"CLASSIFICATION_TYPE":"U","NORAD_CAT_ID":48213,"ELEMENT_SET_NO":999,"REV_AT_EPOCH":22733,"BSTAR":0.00023755887,"MEAN_MOTION_DOT":1.01e-6,"MEAN_MOTION_DDOT":0},{"OBJECT_NAME":"ONEWEB-0218","OBJECT_ID":"2021-031E","EPOCH":"2026-01-09T05:50:34.159488","MEAN_MOTION":13.14505222,"ECCENTRICITY":9.022e-5,"INCLINATION":87.9031,"RA_OF_ASC_NODE":321.3621,"ARG_OF_PERICENTER":57.9435,"MEAN_ANOMALY":302.1782,"EPHEMERIS_TYPE":0,"CLASSIFICATION_TYPE":"U","NORAD_CAT_ID":48214,"ELEMENT_SET_NO":999,"REV_AT_EPOCH":22749,"BSTAR":0.0005454042,"MEAN_MOTION_DOT":2.15e-6,"MEAN_MOTION_DDOT":0},{"OBJECT_NAME":"ONEWEB-0209","OBJECT_ID":"2021-031F","EPOCH":"2026-01-09T07:24:14.054400","MEAN_MOTION":13.1450283,"ECCENTRICITY":0.0001651,"INCLINATION":87.9015,"RA_OF_ASC_NODE":321.3826,"ARG_OF_PERICENTER":86.0618,"MEAN_ANOMALY":274.0701,"EPHEMERIS_TYPE":0,"CLASSIFICATION_TYPE":"U","NORAD_CAT_ID":48215,"ELEMENT_SET_NO":999,"REV_AT_EPOCH":22750,"BSTAR":0.00076966585,"MEAN_MOTION_DOT":2.98e-6,"MEAN_MOTION_DDOT":0},{"OBJECT_NAME":"ONEWEB-0198","OBJECT_ID":"2021-031G","EPOCH":"2026-01-09T07:01:35.467968","MEAN_MOTION":13.14502729,"ECCENTRICITY":0.0001302,"INCLINATION":87.9017,"RA_OF_ASC_NODE":321.3827,"ARG_OF_PERICENTER":84.4074,"MEAN_ANOMALY":275.7204,"EPHEMERIS_TYPE":0,"CLASSIFICATION_TYPE":"U","NORAD_CAT_ID":48216,"ELEMENT_SET_NO":999,"REV_AT_EPOCH":22761,"BSTAR":0.00025709917,"MEAN_MOTION_DOT":1.08e-6,"MEAN_MOTION_DDOT":0},{"OBJECT_NAME":"ONEWEB-0189","OBJECT_ID":"2021-031H","EPOCH":"2026-01-09T05:30:03.096000","MEAN_MOTION":13.14501986,"ECCENTRICITY":0.00013513,"INCLINATION":87.9022,"RA_OF_ASC_NODE":321.3702,"ARG_OF_PERICENTER":81.8023,"MEAN_ANOMALY":278.326,"EPHEMERIS_TYPE":0,"CLASSIFICATION_TYPE":"U","NORAD_CAT_ID":48217,"ELEMENT_SET_NO":999,"REV_AT_EPOCH":22734,"BSTAR":0.0005280605,"MEAN_MOTION_DOT":2.09e-6,"MEAN_MOTION_DDOT":0},{"OBJECT_NAME":"ONEWEB-0196","OBJECT_ID":"2021-031J","EPOCH":"2026-01-09T06:47:39.433056","MEAN_MOTION":13.14502204,"ECCENTRICITY":0.00016247,"INCLINATION":87.9016,"RA_OF_ASC_NODE":321.3723,"ARG_OF_PERICENTER":82.699,"MEAN_ANOMALY":277.4324,"EPHEMERIS_TYPE":0,"CLASSIFICATION_TYPE":"U","NORAD_CAT_ID":48218,"ELEMENT_SET_NO":999,"REV_AT_EPOCH":22735,"BSTAR":-0.00079477797,"MEAN_MOTION_DOT":-2.82e-6,"MEAN_MOTION_DDOT":0},{"OBJECT_NAME":"ONEWEB-0183","OBJECT_ID":"2021-031K","EPOCH":"2026-01-09T06:11:09.226752","MEAN_MOTION":13.14503164,"ECCENTRICITY":0.00018834,"INCLINATION":87.9011,"RA_OF_ASC_NODE":321.3799,"ARG_OF_PERICENTER":83.7764,"MEAN_ANOMALY":276.358,"EPHEMERIS_TYPE":0,"CLASSIFICATION_TYPE":"U","NORAD_CAT_ID":48219,"ELEMENT_SET_NO":999,"REV_AT_EPOCH":22744,"BSTAR":-7.937015e-6,"MEAN_MOTION_DOT":1.0e-7,"MEAN_MOTION_DDOT":0},{"OBJECT_NAME":"ONEWEB-0185","OBJECT_ID":"2021-031L","EPOCH":"2026-01-09T06:48:48.019104","MEAN_MOTION":13.14501353,"ECCENTRICITY":0.00018323,"INCLINATION":87.9024,"RA_OF_ASC_NODE":321.3554,"ARG_OF_PERICENTER":93.3327,"MEAN_ANOMALY":266.8012,"EPHEMERIS_TYPE":0,"CLASSIFICATION_TYPE":"U","NORAD_CAT_ID":48220,"ELEMENT_SET_NO":999,"REV_AT_EPOCH":22737,"BSTAR":-0.00019517701,"MEAN_MOTION_DOT":-6.0e-7,"MEAN_MOTION_DDOT":0},{"OBJECT_NAME":"ONEWEB-0187","OBJECT_ID":"2021-031M","EPOCH":"2026-01-09T06:20:05.682624","MEAN_MOTION":13.14502063,"ECCENTRICITY":0.00016072,"INCLINATION":87.9012,"RA_OF_ASC_NODE":321.3971,"ARG_OF_PERICENTER":87.4828,"MEAN_ANOMALY":272.6485,"EPHEMERIS_TYPE":0,"CLASSIFICATION_TYPE":"U","NORAD_CAT_ID":48221,"ELEMENT_SET_NO":999,"REV_AT_EPOCH":22738,"BSTAR":-0.00044043309,"MEAN_MOTION_DOT":-1.51e-6,"MEAN_MOTION_DDOT":0},{"OBJECT_NAME":"ONEWEB-0192","OBJECT_ID":"2021-031N","EPOCH":"2026-01-09T07:26:30.896448","MEAN_MOTION":13.14503237,"ECCENTRICITY":0.00016273,"INCLINATION":87.9011,"RA_OF_ASC_NODE":321.3775,"ARG_OF_PERICENTER":78.1071,"MEAN_ANOMALY":282.0241,"EPHEMERIS_TYPE":0,"CLASSIFICATION_TYPE":"U","NORAD_CAT_ID":48222,"ELEMENT_SET_NO":999,"REV_AT_EPOCH":22730,"BSTAR":0.00076346035,"MEAN_MOTION_DOT":2.96e-6,"MEAN_MOTION_DDOT":0},{"OBJECT_NAME":"ONEWEB-0219","OBJECT_ID":"2021-031P","EPOCH":"2026-01-09T06:56:49.383744","MEAN_MOTION":13.14502649,"ECCENTRICITY":0.00017082,"INCLINATION":87.902,"RA_OF_ASC_NODE":321.3617,"ARG_OF_PERICENTER":88.1344,"MEAN_ANOMALY":271.9981,"EPHEMERIS_TYPE":0,"CLASSIFICATION_TYPE":"U","NORAD_CAT_ID":48223,"ELEMENT_SET_NO":999,"REV_AT_EPOCH":22750,"BSTAR":0.00011009364,"MEAN_MOTION_DOT":5.4e-7,"MEAN_MOTION_DDOT":0},{"OBJECT_NAME":"ONEWEB-0202","OBJECT_ID":"2021-031Q","EPOCH":"2026-01-09T06:29:24.734688","MEAN_MOTION":13.14503001,"ECCENTRICITY":0.00010302,"INCLINATION":87.9015,"RA_OF_ASC_NODE":321.376,"ARG_OF_PERICENTER":74.8298,"MEAN_ANOMALY":285.2946,"EPHEMERIS_TYPE":0,"CLASSIFICATION_TYPE":"U","NORAD_CAT_ID":48224,"ELEMENT_SET_NO":999,"REV_AT_EPOCH":22748,"BSTAR":-0.00038655684,"MEAN_MOTION_DOT":-1.31e-6,"MEAN_MOTION_DDOT":0},{"OBJECT_NAME":"ONEWEB-0204","OBJECT_ID":"2021-031R","EPOCH":"2026-01-09T07:18:30.305088","MEAN_MOTION":13.14505733,"ECCENTRICITY":0.0001955,"INCLINATION":87.902,"RA_OF_ASC_NODE":321.3609,"ARG_OF_PERICENTER":86.0153,"MEAN_ANOMALY":274.12,"EPHEMERIS_TYPE":0,"CLASSIFICATION_TYPE":"U","NORAD_CAT_ID":48225,"ELEMENT_SET_NO":999,"REV_AT_EPOCH":22738,"BSTAR":0.00073661954,"MEAN_MOTION_DOT":2.86e-6,"MEAN_MOTION_DDOT":0},{"OBJECT_NAME":"ONEWEB-0205","OBJECT_ID":"2021-031S","EPOCH":"2026-01-09T06:43:07.428576","MEAN_MOTION":13.14502776,"ECCENTRICITY":0.00017033,"INCLINATION":87.9018,"RA_OF_ASC_NODE":321.3586,"ARG_OF_PERICENTER":86.0595,"MEAN_ANOMALY":274.073,"EPHEMERIS_TYPE":0,"CLASSIFICATION_TYPE":"U","NORAD_CAT_ID":48226,"ELEMENT_SET_NO":999,"REV_AT_EPOCH":22739,"BSTAR":-0.00040482664,"MEAN_MOTION_DOT":-1.37e-6,"MEAN_MOTION_DDOT":0}]
